INTELSAT 602 (IS-602)   
1 20315U 89087A   12042.61199025  .00000025  00000-0  10000-3 0  4261
2 20315   9.1028  54.0398 0001121 259.0877 226.1029  1.00274064 79445
INTELSAT 603 (IS-603)   
1 20523U 90021A   12041.18962063  .00000068  00000-0  10000-3 0  9872
2 20523   8.6035  55.6006 0001243 295.3157 228.5053  1.00273920 73188
SBS-6                   
1 20872U 90091A   12040.92113557 -.00000226  00000-0  10000-3 0  4639
2 20872   4.1139  68.3763 0007341 342.6796  17.5225  0.98993681 66360
INTELSAT 605 (IS-605)   
1 21653U 91055A   12041.87872527 -.00000263  00000-0  10000-3 0  2035
2 21653   6.7263  61.3397 0002656 300.1902  59.9337  0.99327507 74926
INTELSAT 601 (IS-601)   
1 21765U 91075A   12041.40291034 -.00000339  00000-0  10000-3 0  3033
2 21765   6.7070  60.1166 0003984 255.3799 104.7327  0.99593901 74120
INTELSAT 701 (IS-701)   
1 22871U 93066A   12042.50591213 -.00000144  00000-0  10000-3 0  8509
2 22871   0.1993  80.0885 0002928 237.3787 162.6070  1.00271612 66926
INTELSAT 702 (IS-702)   
1 23124U 94034A   12041.74356325  .00000121  00000-0  00000-0 0  6761
2 23124   0.5491  79.9640 0003112 261.0625 114.3462  1.00273598 78839
INTELSAT 2 (IS-2)       
1 23175U 94040A   12042.51321484 -.00000177  00000-0  00000+0 0   482
2 23175   2.8486  75.3926 0008710 278.5687  81.6045  0.99192490 63713
INTELSAT 704 (IS-704)   
1 23461U 95001A   12041.43884755 -.00000293  00000-0  10000-3 0  4010
2 23461   2.4623  71.3301 0003038 301.0331  59.2778  0.99183121 62500
INTELSAT 705 (IS-705)   
1 23528U 95013A   12041.84064626 -.00000215  00000-0  00000+0 0  3602
2 23528   2.0340  72.4448 0017319 325.0215  35.2504  0.98976147 61747
INTELSAT 706 (IS-706)   
1 23571U 95023A   12042.82834757 -.00000064  00000-0  10000-3 0  4507
2 23571   0.4864  78.7810 0003471 248.0059 184.6829  1.00272572 61298
INTELSAT 3R (IS-3R)     
1 23764U 96002A   12041.58732357  .00000032  00000-0  10000-3 0  1796
2 23764   2.2153  71.3488 0010225 168.5516 191.8469  0.99083937 58874
PAKSAT 1 (ANATOLIA 1)   
1 23779U 96006A   12041.38114222 -.00000272  00000-0  00000-0 0  7259
2 23779   0.2365  83.3029 0004561 358.1620 158.6794  0.99596290 58633
INTELSAT 707 (IS-707)   
1 23816U 96015A   12042.45951264 -.00000291  00000-0  10000-3 0  3481
2 23816   0.0191  53.4614 0003296 278.8146 281.0593  1.00270842 58298
GALAXY 9 (G-9)          
1 23877U 96033A   12042.55116546 -.00000088  00000-0  10000-3 0  5100
2 23877   3.1281  69.9130 0008816  11.9540 348.3356  0.99535988 57544
INTELSAT 709 (IS-709)   
1 23915U 96035A   12041.72095434 -.00000064  00000-0  10000-3 0  4838
2 23915   0.0268 156.1720 0002239 145.9251 169.7189  1.00272713 57379
INTELSAT 26 (IS-26)     
1 24732U 97007A   12040.10455552  .00000108  00000-0  10000-3 0  1260
2 24732   3.8142  67.8972 0004205 265.0480 253.5788  1.00274898 54762
INTELSAT 801 (IS-801)   
1 24742U 97009A   12041.90628438 -.00000220  00000-0  10000-3 0   701
2 24742   3.0422  70.4432 0002666 277.6342  89.0487  1.00271199 54794
GALAXY 25 (G-25)        
1 24812U 97026A   12042.19047762 -.00000168  00000-0  10000-3 0  3989
2 24812   0.0102 139.3995 0003051 188.5962 148.1223  1.00272148 53924
INTELSAT 802 (IS-802)   
1 24846U 97031A   12040.60861810  .00000002  00000-0  10000-3 0  3373
2 24846   1.0179  73.2265 0026477 176.0556 184.6446  0.98107365 53511
INTELSAT 5 (IS-5)       
1 24916U 97046A   12042.36213087 -.00000036  00000-0  10000-3 0  2691
2 24916   0.0282 244.8510 0002853  60.7843 134.5466  1.00272909 53092
INTELSAT 805 (IS-805)   
1 25371U 98037A   12039.37109439 -.00000288  00000-0  10000-3 0  8370
2 25371   0.0063  12.5096 0002712 331.8836 231.5470  1.00270307 49999
INTELSAT 7 (IS-7)       
1 25473U 98052A   12041.62530528 -.00000031  00000-0  10000-3 0  3234
2 25473   0.0065  96.5597 0002322 196.2140 141.0962  1.00273282 49109
INTELSAT 8 (IS-8)       
1 25522U 98065A   12040.67263689 -.00000060  00000-0  10000-3 0  1182
2 25522   0.0466 262.0204 0003187  49.2606 236.0171  1.00272916 48668
GALAXY 26 (G-26)        
1 25626U 99005A   12042.05932271  .00000110  00000-0  10000-3 0  9516
2 25626   0.0072 174.5697 0002649 146.2178 251.0696  1.00271738 47594
INSAT-2E (APR-1)        
1 25666U 99016A   12042.76481959 -.00000172  00000-0  10000-3 0  8127
2 25666   0.2930  78.2594 0002805 251.6107 169.7381  1.00270354 47214
GALAXY 27 (G-27)        
1 25922U 99052A   12042.63019635  .00000130  00000-0  10000-3 0  9805
2 25922   0.0226  47.2327 0006287 278.5796  87.1863  1.00272301 45350
GALAXY 11 (G-11)        
1 26038U 99071A   12041.39807066 -.00000290  00000-0  10000-3 0  2610
2 26038   0.0546 277.1368 0001281 145.8639 164.5941  1.00270305 44554
GALAXY 4R (G-4R)        
1 26298U 00020A   12041.53760797 -.00000153  00000-0  10000-3 0  1144
2 26298   4.9838  64.9650 0000667  23.7532 336.4446  0.99828268 43348
INTELSAT 9 (IS-9)       
1 26451U 00043A   12041.51723547 -.00000290  00000-0  10000-3 0  7159
2 26451   0.0188 196.9731 0002315 147.5508 283.6557  1.00271448 42294
INTELSAT 12 (IS-12)     
1 26590U 00068A   12042.63019747  .00000130  00000-0  10000-3 0  7640
2 26590   0.0082  86.9101 0002047 238.6857  87.3432  1.00273641 41377
INTELSAT 1R (IS-1R)     
1 26608U 00072A   12041.39825179 -.00000287  00000-0  10000-3 0  4484
2 26608   0.0201 228.8976 0000525 350.9168  13.4169  1.00270565 41200
INTELSAT 10 (IS-10)     
1 26766U 01019A   12040.93236955 -.00000029  00000-0  10000-3 0  9375
2 26766   0.0160 140.2876 0000799  89.3976 313.8709  1.00273419 39371
INTELSAT 901 (IS-901)   
1 26824U 01024A   12042.20078738 -.00000147  00000-0  10000-3 0  8472
2 26824   0.0075  81.2012 0002856 237.2082 236.5285  1.00271340 39130
INTELSAT 902 (IS-902)   
1 26900U 01039A   12042.83082676  .00000026  00000-0  00000+0 0  8546
2 26900   0.0267  96.7870 0003201 234.5916 170.9932  1.00272691 38311
INTELSAT 904 (IS-904)   
1 27380U 02007A   12042.12316416  .00000043  00000-0  10000-3 0  9049
2 27380   0.0176  23.7770 0003148 303.2350 277.8962  1.00272973 36555
INTELSAT 903 (IS-903)   
1 27403U 02016A   12041.07258490 -.00000243  00000-0  10000-3 0  6326
2 27403   0.0110  79.7829 0003573 256.6910 154.6837  1.00270604 36204
INTELSAT 905 (IS-905)   
1 27438U 02027A   12040.08929019 -.00000188  00000-0  10000-3 0  4582
2 27438   0.0166 233.8165 0002608  90.0325 182.3692  1.00272153 35518
GALAXY 3C (G-3C)        
1 27445U 02030A   12042.45855167 -.00000157  00000-0  10000-3 0  5249
2 27445   0.0098 218.1829 0000365   0.9306 351.8485  1.00272720 35412
INTELSAT 906 (IS-906)   
1 27513U 02041A   12042.63237811  .00000008  00000-0  00000+0 0  6483
2 27513   0.0111  45.3995 0003049 280.9046 106.5733  1.00272355 34594
INTELSAT 907 (IS-907)   
1 27683U 03007A   12042.09434046 -.00000208  00000-0  10000-3 0  2061
2 27683   0.0153  19.6631 0003341 301.9325 185.4133  1.00271403 32948
GALAXY 12 (G-12)        
1 27715U 03013B   12041.59014660  .00000054  00000-0  10000-3 0  5199
2 27715   0.0602 234.5469 0002474 105.4263 243.5193  1.00271758 32455
GALAXY 23 (G-23)        
1 27854U 03034A   12040.40814698  .00000009  00000-0  00000+0 0  4615
2 27854   0.0156  55.2059 0003050 254.3416 215.2721  1.00272763 31203
GALAXY 13 (HORIZONS-1)  
1 27954U 03044A   12041.59830095  .00000043  00000-0  10000-3 0  3406
2 27954   0.0117 106.4970 0000268 256.9251 225.0081  1.00271797 30691
INTELSAT 10-02          
1 28358U 04022A   12041.59065112 -.00000016  00000-0  10000-3 0  2356
2 28358   0.0182 122.4237 0000989 206.1460  23.1451  1.00272561 28072
GALAXY 28 (G-28)        
1 28702U 05022A   12041.43237542 -.00000190  00000-0  10000-3 0  2219
2 28702   0.0319  79.6696 0001390  86.8099  40.0544  1.00271415 24341
GALAXY 14 (G-14)        
1 28790U 05030A   12041.50250020  .00000032  00000-0  10000-3 0  2628
2 28790   0.0175 275.8815 0002882  38.3656 241.6263  1.00274122 23769
GALAXY 15 (G-15)        
1 28884U 05041A   12041.41037491  .00000074  00000-0  10000-3 0  2883
2 28884   0.0105  52.0250 0002569 261.1456 201.4382  1.00272885 23197
GALAXY 16 (G-16)        
1 29236U 06023A   12041.48451513 -.00000132  00000-0  10000-3 0  1333
2 29236   0.0009 352.2623 0003067 334.8386 248.2622  1.00271451 20714
GALAXY 17 (G-17)        
1 31307U 07016B   12041.43785644 -.00000179  00000-0  10000-3 0  8347
2 31307   0.0223  57.6577 0002926 263.5660 245.3123  1.00271957 17524
INTELSAT 11 (IS-11)     
1 32253U 07044B   12041.14110157 -.00000273  00000-0  10000-3 0  6521
2 32253   0.0264 249.2472 0003104  78.2387 179.9001  1.00270278 15978
HORIZONS-2              
1 32388U 07063B   12041.56412392 -.00000187  00000-0  10000-3 0  7067
2 32388   0.0163  38.9299 0002234 251.4435 137.5901  1.00270882 15337
GALAXY 18 (G-18)        
1 32951U 08024A   12042.25916470  .00000020  00000-0  10000-3 0  5876
2 32951   0.0230 131.1948 0003020 198.5349 141.2658  1.00271998 13679
INTELSAT 25 (IS-25)     
1 33153U 08034A   12040.38290609 -.00000228  00000-0  10000-3 0  6404
2 33153   0.0356 278.5953 0002504  51.0364 275.5744  1.00270449 13184
INTELSAT 14 (IS-14)     
1 36097U 09064A   12040.29980084 -.00000277  00000-0  00000+0 0  3564
2 36097   0.0185 109.9814 0001999 221.9686 229.7420  1.00273086  8141
INTELSAT 15 (IS-15)     
1 36106U 09067A   12041.87290054 -.00000190  00000-0  10000-3 0  4834
2 36106   0.0131  18.6435 0002566 295.4049 225.6625  1.00270843  8058
INTELSAT 16 (IS-16)     
1 36397U 10006A   12042.08230566 -.00000290  00000-0  10000-3 0  3770
2 36397   0.0088 255.3063 0002410  70.7542 145.9995  1.00270878  7307
